#cP2017  4 21  0  0  0.00000000      96 ORBIT IGS14 HLM  IGS
## 1945 432000.00000000   900.00000000 57864 0.0000000000000
+   32   G01G02G03G04G05G06G07G08G09G10G11G12G13G14G15G16G17
+        G18G19G20G21G22G23G24G25G26G27G28G29G30G31G32  0  0
+          0  0  0  0  0  0  0  0  0  0  0  0  0  0  0  0  0
+          0  0  0  0  0  0  0  0  0  0  0  0  0  0  0  0  0
+          0  0  0  0  0  0  0  0  0  0  0  0  0  0  0  0  0
++         2  2  2  0  2  2  2  2  3  2  2  2  2  2  2  2  3
++         3  2  2  3  2  2  2  2  2  2  2  2  2  2  3  0  0
++         0  0  0  0  0  0  0  0  0  0  0  0  0  0  0  0  0
++         0  0  0  0  0  0  0  0  0  0  0  0  0  0  0  0  0
++         0  0  0  0  0  0  0  0  0  0  0  0  0  0  0  0  0
%c G  cc GPS ccc cccc cccc cccc cccc ccccc ccccc ccccc ccccc
%c cc cc ccc ccc cccc cccc cccc cccc ccccc ccccc ccccc ccccc
%f  1.2500000  1.025000000  0.00000000000  0.000000000000000
%f  0.0000000  0.000000000  0.00000000000  0.000000000000000
%i    0    0    0    0      0      0      0      0         0
%i    0    0    0    0      0      0      0      0         0
/* RAPID ORBIT COMBINATION FROM WEIGHTED AVERAGE OF:        
/* cod emr esa gfz jpl ngs sio usn whu                      
/* REFERENCED TO IGS TIME (IGST) AND TO WEIGHTED MEAN POLE: 
/* PCV:IGS14_1930 OL/AL:FES2004  NONE     Y  ORB:CMB CLK:CMB
*  2017  4 21 21  0  0.00000000
PG01  13961.280174 -22238.545971   2760.535261     53.604266  7  7  5 128       
PG02 -17404.890964   5418.363959 -18702.065733    434.834636  8  6  8  93       
PG03  14377.359387 -13198.513418 -18005.411586   -103.605839  4  7  4 127       
PG04  22469.168478   7871.265342 -12289.186557 999999.999999
PG05 -26539.686103   2348.697669   1173.896268    -49.589883  9  8  7 106       
PG06 -11521.999654 -10199.255259 -21622.794506    340.946795  8  8  5 114       
PG07   4797.582557 -23783.578320  10455.585773    359.848937  7  5  7 118       
PG08  12712.125542  -8173.841124  21895.782742    -57.105623  3  7  3 102       
PG09  -5777.751909 -23422.834459 -11121.297955    347.625934 10  8 10 134       
PG10  17170.393422  11159.624654  17001.789188    -71.419930  3  7  6 141       
PG11  10976.341053 -21015.518336  11459.425376   -682.918565  8  7  5 113       
PG12 -18891.247020  10035.929490 -15756.022007    385.030286  8  6  6  84       
PG13 -16162.001185   -485.180455  20941.337930    -78.923578  6  7  6  61       
PG14  17636.572498  16114.551964 -11511.443971    -67.834792  7  9  7 132       
PG15 -10667.812632  11934.871330  20997.388533   -348.384705  5  6  3  39       
PG16  26769.555794    525.075285    657.215296     31.794727  7  9  7  45       
PG17 -14827.545036 -21867.806340  -3076.354565   -183.001693 10 11  6 121       
PG18   7026.866087  15355.614873  21116.617293    611.659932  2  8    125       
PG19 -17138.240197 -16739.290540 -11415.602138   -506.377496  7 10  4 122       
PG20 -18036.593692  13218.359170  14184.399383    469.210644  4  6  4  88       
PG21   1860.873901  22105.281369  15298.194123   -511.174898  9  9  6 124       
PG22  22120.352572  -9956.877331 -10646.629317     34.004493  7  5  4  99       
PG23   4908.513764 -17593.434000 -18896.662641   -210.303137  8  9  5 135       
PG24 -14747.057835  21188.616823   5593.433815    -33.726430  5  7  7 106       
PG25  -4130.338103  14842.379871 -21755.255145   -374.097935  7  6  8  60       
PG26  24331.443846   5296.460676  -9370.013059   -511.594662  8  9  5  94       
PG27  18195.430777   4789.861450  18785.471781    244.672893  5  6  7 124       
PG28 -13050.324372 -13373.576168  19504.249153    606.773071 10  6  6 125       
PG29   2227.207117  22727.062313 -13595.554606    610.673390  7  7  5 101       
PG30  -5557.443120 -17444.255638  19190.733100    158.495394  4  6  4 104       
PG31  12646.021180   8168.460310 -21800.430413    205.779584  7 10  5 126       
PG32  16499.169978  20457.547182  -3993.303520   -391.910634  3  9  7 127       
*  2017  4 21 21 15  0.00000000
PG01  13974.045753 -21683.132446   5590.527521     53.604752  7  7  5 133       
PG02 -16632.273970   3226.666271 -19874.666581    434.827760  8  7  8  95       
PG03  16344.679157 -13181.916672 -16251.322852   -103.604597  5  7  4 135       
PG04  20986.779440   8073.390985 -14581.918446 999999.999999
PG05 -26546.820080   2068.813363  -1641.642692    -49.588176  9  8  7 110       
PG06 -10420.834023 -12382.026136 -21033.193332    340.951327  8  8  5 120       
PG07   5494.800901 -24592.208426   7839.398630    359.845104  7  4  7 123       
PG08  14118.413008  -6130.045716  21708.660688    -57.106985  1  7  4  97       
PG09  -4790.001827 -22398.813951 -13460.593824    347.632958  9  7 10 105       
PG10  15156.781270  11456.220017  18632.916994    -71.412632  3  7  6 142       
PG11  11239.115399 -19469.840573  13620.424429   -682.920668  7  7  6 119       
PG12 -20548.867039   9923.805524 -13560.254437    385.030004  8  7  6  89       
PG13 -17183.419416  -2617.317959  19948.011459    -78.924827  7  8  7  63       
PG14  18049.133426  17266.028854  -9000.195400    -67.836184  8  9  7 133       
PG15 -12221.280503  10025.782956  21180.222423   -348.385105  6  6  4  44       
PG16  26694.294127    665.202864  -2229.177427     31.795300  8  9  7  61       
PG17 -14783.221350 -22159.619775   -200.005786   -183.000450 10 10  6 116       
PG18   4717.222039  15667.766838  21518.296349    611.661911  1  8    119       
PG19 -17507.898425 -17825.739772  -8836.528544   -506.376156  8 10  4 136       
PG20 -19588.995761  13199.350261  11996.540009    469.211609  5  7  5  91       
PG21   1043.014986  23407.531517  13169.630379   -511.173046  9  9  7 126       
PG22  23262.474613  -9766.588380  -8162.457517     33.993571  7  6  3  95       
PG23   6332.729894 -15792.893545 -20054.670842   -210.303860  7  9  4 118       
PG24 -14693.788955  20324.768468   8279.632100    -33.727197  5  7  7 110       
PG25  -6545.674277  14956.128839 -21049.749703   -374.103934  7  7  8  90       
PG26  23143.320986   5620.223771 -11854.160359   -511.591865  9  9  5  94       
PG27  19264.926969   6546.763734  17139.242982    244.678724  6  6  8 129       
PG28 -10873.372468 -13421.949200  20805.296282    606.775685 10  6  6 128       
PG29   1241.446379  21366.439061 -15753.648843    610.670782  7  6  5 110       
PG30  -4384.658793 -19219.223703  17733.267540    158.494811  4  5  4 100       
PG31  11454.937378  10359.321608 -21492.196436    205.777351  8 10  6 131       
PG32  16456.541672  20847.442053  -1164.862698   -391.920819  5  8  8 136       
*  2017  4 21 21 30  0.00000000
PG01  13893.765148 -20835.858632   8322.478137     53.605111  7  7  5 129       
PG02 -15927.238544    893.261628 -20687.586253    434.821148  7  8  8  86       
PG03  18097.768344 -13239.218477 -14217.314374   -103.603365  5  7  4 137       
PG04  19276.418388   8384.679393 -16630.372591 999999.999999
PG05 -26256.443028   1744.026187  -4429.304800    -49.586679  9  8  8 105       
PG06  -9469.767774 -14539.110798 -20080.800126    340.955821  8  8  5 126       
PG07   6028.938936 -25155.543032   5085.689868    359.841388  6  3  7 118       
PG08  15604.943087  -4197.745390  21150.156823    -57.109279  2  6  6 100       
PG09  -3596.198098 -21228.904851 -15568.430915    347.639926  9  7  9 124       
PG10  12996.102251  11880.199030  19945.245057    -71.405261  3  6  5 143       
PG11  11568.288125 -17700.765303  15539.572733   -682.922761  7  7  6 114       
PG12 -21950.157705   9884.132151 -11130.725449    385.029213  7  7  6  96       
PG13 -18248.291598  -4577.985210  18607.463326    -78.925875  7  8  7  69       
PG14  18361.482831  18146.285293  -6333.836424    -67.837519  9 10  6 131       
PG15 -13859.496345   8194.264167  20993.162949   -348.386148  7  6  5  44       
PG16  26305.721441    827.518598  -5078.210225     31.795919  9  9  7 105       
PG17 -14570.823373 -22185.144762   2679.791100   -182.999352 11 10  6 120       
PG18   2399.416325  16095.409822  21568.741004    611.663476  3  8  2 122       
PG19 -17773.993399 -18637.877509  -6104.402099   -506.374850  9 10  5 132       
PG20 -20887.080029  13195.285933   9600.631760    469.212846  7  7  6  53       
PG21    370.998642  24519.155096  10822.395275   -511.171200  9  8  7 126       
PG22  24126.574765  -9581.036594  -5537.093691     33.982687  8  7  3 109       
PG23   7909.513613 -13977.305201 -20857.301562   -210.304719  7 10  3 130       
PG24 -14578.174639  19181.075747  10820.909138    -33.728285  5  8  7  94       
PG25  -8854.572525  15189.319742 -19985.234405   -374.110002  7  7  8  96       
PG26  21707.044585   6044.270260 -14135.272158   -511.589016  9  8  5 105       
PG27  20303.308488   8081.059106  15199.500215    244.684575  7  6  8 127       
PG28  -8580.708010 -13602.695739  21767.076194    606.778602 10  5  5 130       
PG29     52.104977  19873.168989 -17641.095293    610.667692  6  4  5 101       
PG30  -3381.092762 -20887.099286  15969.105490    158.494205  5  5  4 103       
PG31  10402.443966  12561.802767 -20810.203923    205.775334  8 10  6 130       
PG32  16236.662417  20986.039817   1683.572181   -391.930963  7  8  8 139       
EOF
